*******************************************************************************
Ephemeris / WWW_USER Wed Mar 14 15:46:39 2018 Pasadena, USA      / Horizons    
*******************************************************************************
Target body name: Hyperion (607)                  {source: sat389}
Center body name: Solar System Barycenter (0)     {source: DE431mx}
Center-site name: BODY CENTER
*******************************************************************************
Start time      : A.D. 2000-Jan-01 00:00:00.0000 TDB
Stop  time      : A.D. 2001-Jan-01 00:00:00.0000 TDB
Step-size       : 7200 minutes
*******************************************************************************
Center geodetic : 0.00000000,0.00000000,0.0000000 {E-lon(deg),Lat(deg),Alt(km)}
Center cylindric: 0.00000000,0.00000000,0.0000000 {E-lon(deg),Dxy(km),Dz(km)}
Center radii    : (undefined)                                                  
Output units    : AU-D                                                         
Output type     : GEOMETRIC cartesian states
Output format   : 2 (position and velocity)
Reference frame : ICRF/J2000.0                                                 
Coordinate systm: Ecliptic and Mean Equinox of Reference Epoch                 
*******************************************************************************
JDTDB
   X     Y     Z
   VX    VY    VZ
*******************************************************************************
$$SOE
2451754.500000000 = A.D. 2000-Jul-29 00:00:00.0000 TDB 
   5.458208224980343E+00  7.322608984734126E+00 -3.450451639258940E-01
  -4.761161893057534E-03  6.286168446971816E-03 -1.361508564319116E-03
2451759.500000000 = A.D. 2000-Aug-03 00:00:00.0000 TDB 
   5.424403953719215E+00  7.348418786748971E+00 -3.480022236744124E-01
  -7.624391838896137E-03  3.415629442604793E-03  3.733374898516525E-04
2451764.500000000 = A.D. 2000-Aug-08 00:00:00.0000 TDB 
   5.390890208343873E+00  7.358412815697673E+00 -3.430704639227636E-01
  -5.337825772102105E-03  1.077722606389452E-03  1.303774248064872E-03
2451769.500000000 = A.D. 2000-Aug-13 00:00:00.0000 TDB 
   5.372296733155236E+00  7.364784419800359E+00 -3.379085319014127E-01
  -2.274615824674553E-03  2.084806772696706E-03  4.703739028822968E-04
2451774.500000000 = A.D. 2000-Aug-18 00:00:00.0000 TDB 
   5.361394844370846E+00  7.384531918992718E+00 -3.403156142537220E-01
  -3.322619758564747E-03  5.830517685361296E-03 -1.312617556905081E-03
2451779.500000000 = A.D. 2000-Aug-23 00:00:00.0000 TDB 
   5.332364453990857E+00  7.413069488514036E+00 -3.452949615749671E-01
  -7.578526487913489E-03  4.415819769230640E-03 -1.652152264544762E-04
2451784.500000000 = A.D. 2000-Aug-28 00:00:00.0000 TDB 
   5.296087506567662E+00  7.426505635294641E+00 -3.419604603801012E-01
  -6.240895313155140E-03  1.352743911760154E-03  1.228644173995440E-03
2451789.500000000 = A.D. 2000-Sep-02 00:00:00.0000 TDB 
   5.272993874629791E+00  7.431842715182297E+00 -3.359637830361911E-01
  -2.992974444385458E-03  1.375558973986552E-03  8.712179263259107E-04
2451794.500000000 = A.D. 2000-Sep-07 00:00:00.0000 TDB 
   5.262147994374694E+00  7.446443724867972E+00 -3.359405593771027E-01
  -2.335845532045935E-03  4.885901202477193E-03 -9.706078764236276E-04
2451799.500000000 = A.D. 2000-Sep-12 00:00:00.0000 TDB 
   5.238827322017421E+00  7.475322239100906E+00 -3.418387792733554E-01
  -7.028690303865357E-03  5.302921422404010E-03 -6.995297431893295E-04
2451804.500000000 = A.D. 2000-Sep-17 00:00:00.0000 TDB 
   5.201430900529442E+00  7.492761524483979E+00 -3.405563746913925E-01
  -6.991556978248156E-03  1.848038583144004E-03  1.026649982106538E-03
2451809.500000000 = A.D. 2000-Sep-22 00:00:00.0000 TDB 
   5.173869552989909E+00  7.498362265354535E+00 -3.343819743907732E-01
  -3.874115995072717E-03  9.511346945002315E-04  1.145454664927170E-03
2451814.500000000 = A.D. 2000-Sep-27 00:00:00.0000 TDB 
   5.161027766394347E+00  7.508473886180183E+00 -3.320478404315004E-01
  -1.907493883007799E-03  3.703786571467127E-03 -4.516128520143924E-04
2451819.500000000 = A.D. 2000-Oct-02 00:00:00.0000 TDB 
   5.143355512069560E+00  7.535285130965090E+00 -3.376492593058224E-01
  -5.991161729728264E-03  5.922140711888850E-03 -1.150009545098296E-03
2451824.500000000 = A.D. 2000-Oct-07 00:00:00.0000 TDB 
   5.106698413818701E+00  7.556930936984107E+00 -3.387149435110748E-01
  -7.539659771076889E-03  2.534488935753741E-03  7.073201867516755E-04
2451829.500000000 = A.D. 2000-Oct-12 00:00:00.0000 TDB 
   5.075084517778957E+00  7.563941420231261E+00 -3.329835195942168E-01
  -4.795314910307625E-03  7.944085195949205E-04  1.288996111585803E-03
2451834.500000000 = A.D. 2000-Oct-17 00:00:00.0000 TDB 
   5.058884639172692E+00  7.570768202071730E+00 -3.288036432977975E-01
  -2.034130801428546E-03  2.581069626773368E-03  9.504183307627116E-05
2451839.500000000 = A.D. 2000-Oct-22 00:00:00.0000 TDB 
   5.045441473793591E+00  7.593454130162114E+00 -3.329266053544760E-01
  -4.599178229123800E-03  6.005025351070848E-03 -1.367858252950494E-03
2451844.500000000 = A.D. 2000-Oct-27 00:00:00.0000 TDB 
   5.011749384712622E+00  7.618831723718892E+00 -3.363342807903364E-01
  -7.805779941233324E-03  3.404133118741246E-03  2.663103206045799E-04
2451849.500000000 = A.D. 2000-Nov-01 00:00:00.0000 TDB 
   4.976709728527115E+00  7.628343778498609E+00 -3.316617442250029E-01
  -5.703879629984861E-03  8.697423825947465E-04  1.314030801551825E-03
2451854.500000000 = A.D. 2000-Nov-06 00:00:00.0000 TDB 
   4.956502365473644E+00  7.633142486891021E+00 -3.262024849316588E-01
  -2.512135003273549E-03  1.690090401503392E-03  5.615376197686498E-04
2451859.500000000 = A.D. 2000-Nov-11 00:00:00.0000 TDB 
   4.944998052663241E+00  7.650964325725815E+00 -3.282368485443374E-01
  -3.347733642129791E-03  5.503044600062074E-03 -1.276764759888545E-03
2451864.500000000 = A.D. 2000-Nov-16 00:00:00.0000 TDB 
   4.915821712224188E+00  7.678395726591550E+00 -3.333041954607206E-01
  -7.674509722667011E-03  4.284432115036386E-03 -2.217090441733096E-04
2451869.500000000 = A.D. 2000-Nov-21 00:00:00.0000 TDB 
   4.878537007751526E+00  7.691133550102101E+00 -3.301788204013814E-01
  -6.520966245759497E-03  1.164205563387616E-03  1.219344487951511E-03
2451874.500000000 = A.D. 2000-Nov-26 00:00:00.0000 TDB 
   4.854031294516564E+00  7.695163901275673E+00 -3.240442210346718E-01
  -3.242488968373998E-03  1.049206946417164E-03  9.281062613880729E-04
2451879.500000000 = A.D. 2000-Dec-01 00:00:00.0000 TDB 
   4.842317646158344E+00  7.708039119223905E+00 -3.237278900407413E-01
  -2.433856586407664E-03  4.556750835404250E-03 -9.276948851065722E-04
2451884.500000000 = A.D. 2000-Dec-06 00:00:00.0000 TDB 
   4.818608322554795E+00  7.735593347658045E+00 -3.295842270008323E-01
  -7.126197995651957E-03  5.100629893776850E-03 -7.208842201723617E-04
2451889.500000000 = A.D. 2000-Dec-11 00:00:00.0000 TDB 
   4.780424040235792E+00  7.752087528200151E+00 -3.284129238841711E-01
  -7.200785837479428E-03  1.644651765170157E-03  1.016672008432374E-03
2451894.500000000 = A.D. 2000-Dec-16 00:00:00.0000 TDB 
   4.751760321572657E+00  7.756474860239034E+00 -3.221844741953025E-01
  -4.084736241605419E-03  6.713382351126851E-04  1.173862875100128E-03
2451899.500000000 = A.D. 2000-Dec-21 00:00:00.0000 TDB 
   4.738032941740385E+00  7.765129101837593E+00 -3.196956732927631E-01
  -2.055004309586806E-03  3.417256499202994E-03 -4.260525333853402E-04
2451904.500000000 = A.D. 2000-Dec-26 00:00:00.0000 TDB 
   4.719683476862262E+00  7.790573412836197E+00 -3.252083256677804E-01
  -6.112500602918819E-03  5.665164792738262E-03 -1.142136399673352E-03
2451909.500000000 = A.D. 2000-Dec-31 00:00:00.0000 TDB 
   4.682337953767343E+00  7.811070537624706E+00 -3.262968294411320E-01
  -7.709714040066698E-03  2.314610861872728E-03  7.007379153583985E-04
